[
    {
        "Altitude(m)": 710602.5854810341,
        "Argument of Periapsis(deg)": 0.009112096949301655,
        "Eccentricity": 0.0,
        "Inclination(deg)": 45.0,
        "Latitude(deg)": -27.118498356409873,
        "Longitude(deg)": -71.23557035140281,
        "Mean Anomaly(deg)": -39.86432668201524,
        "RAAN(deg)": 59.991398446833436,
        "Satellite Name": "Constellation 1 283",
        "Satellite Number": 283,
        "Semi-Major Axis(m)": 7083131.272910544,
        "Time(s)": 152
    },
    {
        "Altitude(m)": 710588.7298885278,
        "Argument of Periapsis(deg)": 0.009172044955547059,
        "Eccentricity": 0.0,
        "Inclination(deg)": 45.0,
        "Latitude(deg)": -27.081431033144028,
        "Longitude(deg)": -71.18575761083937,
        "Mean Anomaly(deg)": -39.80362554176533,
        "RAAN(deg)": 59.99134185766786,
        "Satellite Name": "Constellation 1 283",
        "Satellite Number": 283,
        "Semi-Major Axis(m)": 7083131.272910544,
        "Time(s)": 153
    },
    {
        "Altitude(m)": 710574.8740966549,
        "Argument of Periapsis(deg)": 0.009231992961792466,
        "Eccentricity": 0.0,
        "Inclination(deg)": 45.0,
        "Latitude(deg)": -27.044342769520934,
        "Longitude(deg)": -71.13598020672384,
        "Mean Anomaly(deg)": -39.74292440151552,
        "RAAN(deg)": 59.99128526850229,
        "Satellite Name": "Constellation 1 283",
        "Satellite Number": 283,
        "Semi-Major Axis(m)": 7083131.272910544,
        "Time(s)": 154
    },
    {
        "Altitude(m)": 710561.0181531738,
        "Argument of Periapsis(deg)": 0.009291940968037872,
        "Eccentricity": 0.0,
        "Inclination(deg)": 45.0,
        "Latitude(deg)": -27.007233611711623,
        "Longitude(deg)": -71.08623807912183,
        "Mean Anomaly(deg)": -39.68222326126562,
        "RAAN(deg)": 59.99122867933672,
        "Satellite Name": "Constellation 1 283",
        "Satellite Number": 283,
        "Semi-Major Axis(m)": 7083131.272910544,
        "Time(s)": 155
    },
    {
        "Altitude(m)": 710547.1621058366,
        "Argument of Periapsis(deg)": 0.009351888974283276,
        "Eccentricity": 0.0,
        "Inclination(deg)": 45.0,
        "Latitude(deg)": -26.970103605820476,
        "Longitude(deg)": -71.03653133618236,
        "Mean Anomaly(deg)": -39.62152212101566,
        "RAAN(deg)": 59.99117209017115,
        "Satellite Name": "Constellation 1 283",
        "Satellite Number": 283,
        "Semi-Major Axis(m)": 7083131.272910544,
        "Time(s)": 156
    },
    {
        "Altitude(m)": 710533.3060023768,
        "Argument of Periapsis(deg)": 0.00941183698052868,
        "Eccentricity": 0.0,
        "Inclination(deg)": 45.0,
        "Latitude(deg)": -26.93295279788501,
        "Longitude(deg)": -70.98685958174939,
        "Mean Anomaly(deg)": -39.5608209807658,
        "RAAN(deg)": 59.99111550100558,
        "Satellite Name": "Constellation 1 283",
        "Satellite Number": 283,
        "Semi-Major Axis(m)": 7083131.272910544,
        "Time(s)": 157
    },
    {
        "Altitude(m)": 710519.449890524,
        "Argument of Periapsis(deg)": 0.009471784986774088,
        "Eccentricity": 0.0,
        "Inclination(deg)": 45.0,
        "Latitude(deg)": -26.895781233876125,
        "Longitude(deg)": -70.93722292394489,
        "Mean Anomaly(deg)": -39.50011984051593,
        "RAAN(deg)": 59.991058911840014,
        "Satellite Name": "Constellation 1 283",
        "Satellite Number": 283,
        "Semi-Major Axis(m)": 7083131.272910544,
        "Time(s)": 158
    },
    {
        "Altitude(m)": 710505.5938179962,
        "Argument of Periapsis(deg)": 0.009531732993019492,
        "Eccentricity": 0.0,
        "Inclination(deg)": 45.0,
        "Latitude(deg)": -26.85858895969799,
        "Longitude(deg)": -70.8876213027808,
        "Mean Anomaly(deg)": -39.439418700265975,
        "RAAN(deg)": 59.99100232267445,
        "Satellite Name": "Constellation 1 283",
        "Satellite Number": 283,
        "Semi-Major Axis(m)": 7083131.272910544,
        "Time(s)": 159
    },
    {
        "Altitude(m)": 710491.7378324838,
        "Argument of Periapsis(deg)": 0.009591680999264898,
        "Eccentricity": 0.0,
        "Inclination(deg)": 45.0,
        "Latitude(deg)": -26.82137602118854,
        "Longitude(deg)": -70.83805465825705,
        "Mean Anomaly(deg)": -39.378717560016064,
        "RAAN(deg)": 59.99094573350888,
        "Satellite Name": "Constellation 1 283",
        "Satellite Number": 283,
        "Semi-Major Axis(m)": 7083131.272910544,
        "Time(s)": 160
    },
    {
        "Altitude(m)": 710477.8819816896,
        "Argument of Periapsis(deg)": 0.009651629005510304,
        "Eccentricity": 0.0,
        "Inclination(deg)": 45.0,
        "Latitude(deg)": -26.784142464119068,
        "Longitude(deg)": -70.7885229303613,
        "Mean Anomaly(deg)": -39.318016419766195,
        "RAAN(deg)": 59.990889144343306,
        "Satellite Name": "Constellation 1 283",
        "Satellite Number": 283,
        "Semi-Major Axis(m)": 7083131.272910544,
        "Time(s)": 161
    },
    {
        "Altitude(m)": 710464.0263132876,
        "Argument of Periapsis(deg)": 0.00971157701175571,
        "Eccentricity": 0.0,
        "Inclination(deg)": 45.0,
        "Latitude(deg)": -26.746888334194537,
        "Longitude(deg)": -70.73902605906957,
        "Mean Anomaly(deg)": -39.257315279516284,
        "RAAN(deg)": 59.99083255517773,
        "Satellite Name": "Constellation 1 283",
        "Satellite Number": 283,
        "Semi-Major Axis(m)": 7083131.272910544,
        "Time(s)": 162
    },
    {
        "Altitude(m)": 710450.1708749396,
        "Argument of Periapsis(deg)": 0.009771525018001118,
        "Eccentricity": 0.0,
        "Inclination(deg)": 45.0,
        "Latitude(deg)": -26.709613677053806,
        "Longitude(deg)": -70.68956415244408,
        "Mean Anomaly(deg)": -39.19661413926639,
        "RAAN(deg)": 59.99077596601218,
        "Satellite Name": "Constellation 1 283",
        "Satellite Number": 283,
        "Semi-Major Axis(m)": 7083131.272910544,
        "Time(s)": 163
    },
    {
        "Altitude(m)": 710436.3157143049,
        "Argument of Periapsis(deg)": 0.00983147302424652,
        "Eccentricity": 0.0,
        "Inclination(deg)": 45.0,
        "Latitude(deg)": -26.672318538269284,
        "Longitude(deg)": -70.64013681424457,
        "Mean Anomaly(deg)": -39.135912999016476,
        "RAAN(deg)": 59.990719376846606,
        "Satellite Name": "Constellation 1 283",
        "Satellite Number": 283,
        "Semi-Major Axis(m)": 7083131.272910544,
        "Time(s)": 164
    },
    {
        "Altitude(m)": 710422.4608790223,
        "Argument of Periapsis(deg)": 0.009891421030491928,
        "Eccentricity": 0.0,
        "Inclination(deg)": 45.0,
        "Latitude(deg)": -26.635002963347578,
        "Longitude(deg)": -70.59074415251209,
        "Mean Anomaly(deg)": -39.075211858766615,
        "RAAN(deg)": 59.99066278768103,
        "Satellite Name": "Constellation 1 283",
        "Satellite Number": 283,
        "Semi-Major Axis(m)": 7083131.272910544,
        "Time(s)": 165
    },
    {
        "Altitude(m)": 710408.60641672,
        "Argument of Periapsis(deg)": 0.009951369036737332,
        "Eccentricity": 0.0,
        "Inclination(deg)": 45.0,
        "Latitude(deg)": -26.597666997729114,
        "Longitude(deg)": -70.54138610718034,
        "Mean Anomaly(deg)": -39.0145107185167,
        "RAAN(deg)": 59.99060619851546,
        "Satellite Name": "Constellation 1 283",
        "Satellite Number": 283,
        "Semi-Major Axis(m)": 7083131.272910544,
        "Time(s)": 166
    },
    {
        "Altitude(m)": 710394.7523750075,
        "Argument of Periapsis(deg)": 0.010011317042982738,
        "Eccentricity": 0.0,
        "Inclination(deg)": 45.0,
        "Latitude(deg)": -26.560310686788515,
        "Longitude(deg)": -70.49206261817355,
        "Mean Anomaly(deg)": -38.9538095782668,
        "RAAN(deg)": 59.99054960934989,
        "Satellite Name": "Constellation 1 283",
        "Satellite Number": 283,
        "Semi-Major Axis(m)": 7083131.272910544,
        "Time(s)": 167
    },
    {
        "Altitude(m)": 710380.8988014869,
        "Argument of Periapsis(deg)": 0.010071265049228144,
        "Eccentricity": 0.0,
        "Inclination(deg)": 45.0,
        "Latitude(deg)": -26.52293407583452,
        "Longitude(deg)": -70.44277362540673,
        "Mean Anomaly(deg)": -38.89310843801689,
        "RAAN(deg)": 59.99049302018432,
        "Satellite Name": "Constellation 1 283",
        "Satellite Number": 283,
        "Semi-Major Axis(m)": 7083131.272910544,
        "Time(s)": 168
    },
    {
        "Altitude(m)": 710367.0457437482,
        "Argument of Periapsis(deg)": 0.01013121305547355,
        "Eccentricity": 0.0,
        "Inclination(deg)": 45.0,
        "Latitude(deg)": -26.48553721011013,
        "Longitude(deg)": -70.39351906878606,
        "Mean Anomaly(deg)": -38.83240729776697,
        "RAAN(deg)": 59.99043643101874,
        "Satellite Name": "Constellation 1 283",
        "Satellite Number": 283,
        "Semi-Major Axis(m)": 7083131.272910544,
        "Time(s)": 169
    },
    {
        "Altitude(m)": 710353.1932493617,
        "Argument of Periapsis(deg)": 0.010191161061718957,
        "Eccentricity": 0.0,
        "Inclination(deg)": 45.0,
        "Latitude(deg)": -26.448120134792724,
        "Longitude(deg)": -70.34429888820935,
        "Mean Anomaly(deg)": -38.77170615751711,
        "RAAN(deg)": 59.99037984185317,
        "Satellite Name": "Constellation 1 283",
        "Satellite Number": 283,
        "Semi-Major Axis(m)": 7083131.272910544,
        "Time(s)": 170
    }
]